HIMAWARI-8              
1 40267U 14060A   24228.58380602 -.00000269  00000+0  00000+0 0  9996
2 40267   0.0465 252.3743 0000858 262.2634 160.6743  1.00272532 36141
